DUPLEX                  
1 66906U 98067XS  26087.26576530  .00034002  00000+0  45879-3 0  9998
2 66906  51.6303 336.4539 0002900 197.4506 162.6387 15.57460448 18021
ISS OBJECT XT           
1 66907U 98067XT  26087.07657550  .00217682  00000+0  13412-2 0  9994
2 66907  51.6249 331.4049 0005907 198.8815 161.1966 15.75968383 18073
ISS OBJECT XU           
1 66908U 98067XU  26087.07290118  .00225038  00000+0  13700-2 0  9992
2 66908  51.6247 331.3755 0006132 198.7840 161.2934 15.76216894 18073
SILVERSAT               
1 66909U 98067XV  26087.09242312  .00323857  00000+0  15458-2 0  9998
2 66909  51.6219 329.9939 0006927 204.2844 155.7832 15.81335789 18097
ISS OBJECT XW           
1 66910U 98067XW  26087.08301747  .00195443  00000+0  12836-2 0  9992
2 66910  51.6240 331.4401 0006304 196.5269 163.5525 15.74566527 18070
ISS OBJECT XX           
1 66911U 98067XX  26087.03713223  .00487256  00000+0  16862-2 0  9993
2 66911  51.6193 328.8401 0008692 208.4454 151.6078 15.87650980 18093
ISS OBJECT XY           
1 66912U 98067XY  26087.09351581  .00110653  00000+0  99368-3 0  9992
2 66912  51.6270 333.7912 0004310 195.7948 164.2915 15.67410233 18038
KNACKSAT-2              
1 67683U 98067XZ  26087.26490943  .00044943  00000+0  70041-3 0  9998
2 67683  51.6323 339.4481 0009955 253.0442 106.9457 15.53355433  7671
CORAL                   
1 67684U 98067YA  26087.07024888  .00088583  00000+0  11749-2 0  9996
2 67684  51.6309 339.6483 0012635 241.6761 118.2957 15.57412936  7651
GXIBA-1                 
1 67685U 98067YB  26087.12648434  .00046994  00000+0  71759-3 0  9990
2 67685  51.6320 340.0239 0011859 249.3772 110.5947 15.53874924  7653
UITMSAT-2               
1 67686U 98067YC  26087.11230092  .00058539  00000+0  86220-3 0  9994
2 67686  51.6320 339.9313 0009050 220.6186 139.4131 15.54802779  7650
HMU-SAT2                
1 67687U 98067YD  26087.13129700  .00045541  00000+0  70312-3 0  9994
2 67687  51.6326 340.0583 0008546 223.8304 136.2009 15.53622616  7574
LEOPARD                 
1 67688U 98067YE  26086.99018672  .00052781  00000+0  79128-3 0  9991
2 67688  51.6330 340.6163 0008714 220.8121 139.2218 15.54365889  7551
CREW DRAGON 12          
1 67796U 26031A   26087.16470415  .00012619  00000+0  24003-3 0  9998
2 67796  51.6345 341.0267 0006226 240.9881 119.0483 15.48601072559135
PROGRESS-MS 33          
1 68319U 26058A   26087.16470415  .00012619  00000+0  24003-3 0  9999
2 68319  51.6345 341.0267 0006226 240.9881 119.0483 15.48601072   330
