[{"OBJECT_NAME":"DUPLEX","OBJECT_ID":"1998-067XS","EPOCH":"2026-03-28T06:22:42.121920","MEAN_MOTION":15.57460448,"ECCENTRICITY":0.00029003,"INCLINATION":51.6303,"RA_OF_ASC_NODE":336.4539,"ARG_OF_PERICENTER":197.4506,"MEAN_ANOMALY":162.6387,"EPHEMERIS_TYPE":0,"CLASSIFICATION_TYPE":"U","NORAD_CAT_ID":66906,"ELEMENT_SET_NO":999,"REV_AT_EPOCH":1802,"BSTAR":0.00045879059,"MEAN_MOTION_DOT":0.00034002,"MEAN_MOTION_DDOT":0},{"OBJECT_NAME":"ISS OBJECT XT","OBJECT_ID":"1998-067XT","EPOCH":"2026-03-28T01:50:16.123200","MEAN_MOTION":15.75968383,"ECCENTRICITY":0.00059077,"INCLINATION":51.6249,"RA_OF_ASC_NODE":331.4049,"ARG_OF_PERICENTER":198.8815,"MEAN_ANOMALY":161.1966,"EPHEMERIS_TYPE":0,"CLASSIFICATION_TYPE":"U","NORAD_CAT_ID":66907,"ELEMENT_SET_NO":999,"REV_AT_EPOCH":1807,"BSTAR":0.0013411821,"MEAN_MOTION_DOT":0.00217682,"MEAN_MOTION_DDOT":0},{"OBJECT_NAME":"ISS OBJECT XU","OBJECT_ID":"1998-067XU","EPOCH":"2026-03-28T01:44:58.661952","MEAN_MOTION":15.76216894,"ECCENTRICITY":0.00061326,"INCLINATION":51.6247,"RA_OF_ASC_NODE":331.3755,"ARG_OF_PERICENTER":198.784,"MEAN_ANOMALY":161.2934,"EPHEMERIS_TYPE":0,"CLASSIFICATION_TYPE":"U","NORAD_CAT_ID":66908,"ELEMENT_SET_NO":999,"REV_AT_EPOCH":1807,"BSTAR":0.0013700376,"MEAN_MOTION_DOT":0.00225038,"MEAN_MOTION_DDOT":0},{"OBJECT_NAME":"SILVERSAT","OBJECT_ID":"1998-067XV","EPOCH":"2026-03-28T02:13:05.357568","MEAN_MOTION":15.81335789,"ECCENTRICITY":0.00069275,"INCLINATION":51.6219,"RA_OF_ASC_NODE":329.9939,"ARG_OF_PERICENTER":204.2844,"MEAN_ANOMALY":155.7832,"EPHEMERIS_TYPE":0,"CLASSIFICATION_TYPE":"U","NORAD_CAT_ID":66909,"ELEMENT_SET_NO":999,"REV_AT_EPOCH":1809,"BSTAR":0.00154577,"MEAN_MOTION_DOT":0.00323857,"MEAN_MOTION_DDOT":0},{"OBJECT_NAME":"ISS OBJECT XW","OBJECT_ID":"1998-067XW","EPOCH":"2026-03-28T01:59:32.709408","MEAN_MOTION":15.74566527,"ECCENTRICITY":0.00063049,"INCLINATION":51.624,"RA_OF_ASC_NODE":331.4401,"ARG_OF_PERICENTER":196.5269,"MEAN_ANOMALY":163.5525,"EPHEMERIS_TYPE":0,"CLASSIFICATION_TYPE":"U","NORAD_CAT_ID":66910,"ELEMENT_SET_NO":999,"REV_AT_EPOCH":1807,"BSTAR":0.0012836225,"MEAN_MOTION_DOT":0.00195443,"MEAN_MOTION_DDOT":0},{"OBJECT_NAME":"ISS OBJECT XX","OBJECT_ID":"1998-067XX","EPOCH":"2026-03-28T00:53:28.224672","MEAN_MOTION":15.8765098,"ECCENTRICITY":0.00086921,"INCLINATION":51.6193,"RA_OF_ASC_NODE":328.8401,"ARG_OF_PERICENTER":208.4454,"MEAN_ANOMALY":151.6078,"EPHEMERIS_TYPE":0,"CLASSIFICATION_TYPE":"U","NORAD_CAT_ID":66911,"ELEMENT_SET_NO":999,"REV_AT_EPOCH":1809,"BSTAR":0.0016862247,"MEAN_MOTION_DOT":0.00487256,"MEAN_MOTION_DDOT":0},{"OBJECT_NAME":"ISS OBJECT XY","OBJECT_ID":"1998-067XY","EPOCH":"2026-03-28T02:14:39.765984","MEAN_MOTION":15.67410233,"ECCENTRICITY":0.00043109,"INCLINATION":51.627,"RA_OF_ASC_NODE":333.7912,"ARG_OF_PERICENTER":195.7948,"MEAN_ANOMALY":164.2915,"EPHEMERIS_TYPE":0,"CLASSIFICATION_TYPE":"U","NORAD_CAT_ID":66912,"ELEMENT_SET_NO":999,"REV_AT_EPOCH":1803,"BSTAR":0.00099368188,"MEAN_MOTION_DOT":0.00110653,"MEAN_MOTION_DDOT":0},{"OBJECT_NAME":"KNACKSAT-2","OBJECT_ID":"1998-067XZ","EPOCH":"2026-03-28T06:21:28.174752","MEAN_MOTION":15.53355433,"ECCENTRICITY":0.00099554,"INCLINATION":51.6323,"RA_OF_ASC_NODE":339.4481,"ARG_OF_PERICENTER":253.0442,"MEAN_ANOMALY":106.9457,"EPHEMERIS_TYPE":0,"CLASSIFICATION_TYPE":"U","NORAD_CAT_ID":67683,"ELEMENT_SET_NO":999,"REV_AT_EPOCH":767,"BSTAR":0.00070041053,"MEAN_MOTION_DOT":0.00044943,"MEAN_MOTION_DDOT":0},{"OBJECT_NAME":"CORAL","OBJECT_ID":"1998-067YA","EPOCH":"2026-03-28T01:41:09.503232","MEAN_MOTION":15.57412936,"ECCENTRICITY":0.00126356,"INCLINATION":51.6309,"RA_OF_ASC_NODE":339.6483,"ARG_OF_PERICENTER":241.6761,"MEAN_ANOMALY":118.2957,"EPHEMERIS_TYPE":0,"CLASSIFICATION_TYPE":"U","NORAD_CAT_ID":67684,"ELEMENT_SET_NO":999,"REV_AT_EPOCH":765,"BSTAR":0.0011748725,"MEAN_MOTION_DOT":0.00088583,"MEAN_MOTION_DDOT":0},{"OBJECT_NAME":"GXIBA-1","OBJECT_ID":"1998-067YB","EPOCH":"2026-03-28T03:02:08.246976","MEAN_MOTION":15.53874924,"ECCENTRICITY":0.00118591,"INCLINATION":51.632,"RA_OF_ASC_NODE":340.0239,"ARG_OF_PERICENTER":249.3772,"MEAN_ANOMALY":110.5947,"EPHEMERIS_TYPE":0,"CLASSIFICATION_TYPE":"U","NORAD_CAT_ID":67685,"ELEMENT_SET_NO":999,"REV_AT_EPOCH":765,"BSTAR":0.00071758857,"MEAN_MOTION_DOT":0.00046994,"MEAN_MOTION_DDOT":0},{"OBJECT_NAME":"UITMSAT-2","OBJECT_ID":"1998-067YC","EPOCH":"2026-03-28T02:41:42.799488","MEAN_MOTION":15.54802779,"ECCENTRICITY":0.00090505,"INCLINATION":51.632,"RA_OF_ASC_NODE":339.9313,"ARG_OF_PERICENTER":220.6186,"MEAN_ANOMALY":139.4131,"EPHEMERIS_TYPE":0,"CLASSIFICATION_TYPE":"U","NORAD_CAT_ID":67686,"ELEMENT_SET_NO":999,"REV_AT_EPOCH":765,"BSTAR":0.0008622031,"MEAN_MOTION_DOT":0.00058539,"MEAN_MOTION_DDOT":0},{"OBJECT_NAME":"HMU-SAT2","OBJECT_ID":"1998-067YD","EPOCH":"2026-03-28T03:09:04.060800","MEAN_MOTION":15.53622616,"ECCENTRICITY":0.00085467,"INCLINATION":51.6326,"RA_OF_ASC_NODE":340.0583,"ARG_OF_PERICENTER":223.8304,"MEAN_ANOMALY":136.2009,"EPHEMERIS_TYPE":0,"CLASSIFICATION_TYPE":"U","NORAD_CAT_ID":67687,"ELEMENT_SET_NO":999,"REV_AT_EPOCH":757,"BSTAR":0.00070312211,"MEAN_MOTION_DOT":0.00045541,"MEAN_MOTION_DDOT":0},{"OBJECT_NAME":"LEOPARD","OBJECT_ID":"1998-067YE","EPOCH":"2026-03-27T23:45:52.132608","MEAN_MOTION":15.54365889,"ECCENTRICITY":0.0008714,"INCLINATION":51.633,"RA_OF_ASC_NODE":340.6163,"ARG_OF_PERICENTER":220.8121,"MEAN_ANOMALY":139.2218,"EPHEMERIS_TYPE":0,"CLASSIFICATION_TYPE":"U","NORAD_CAT_ID":67688,"ELEMENT_SET_NO":999,"REV_AT_EPOCH":755,"BSTAR":0.00079128,"MEAN_MOTION_DOT":0.00052781,"MEAN_MOTION_DDOT":0},{"OBJECT_NAME":"CREW DRAGON 12","OBJECT_ID":"2026-031A","EPOCH":"2026-03-28T03:57:10.438560","MEAN_MOTION":15.48601072,"ECCENTRICITY":0.00062264,"INCLINATION":51.6345,"RA_OF_ASC_NODE":341.0267,"ARG_OF_PERICENTER":240.9881,"MEAN_ANOMALY":119.0483,"EPHEMERIS_TYPE":0,"CLASSIFICATION_TYPE":"U","NORAD_CAT_ID":67796,"ELEMENT_SET_NO":999,"REV_AT_EPOCH":55913,"BSTAR":0.00024002995,"MEAN_MOTION_DOT":0.00012619,"MEAN_MOTION_DDOT":0},{"OBJECT_NAME":"PROGRESS-MS 33","OBJECT_ID":"2026-058A","EPOCH":"2026-03-28T03:57:10.438560","MEAN_MOTION":15.48601072,"ECCENTRICITY":0.00062264,"INCLINATION":51.6345,"RA_OF_ASC_NODE":341.0267,"ARG_OF_PERICENTER":240.9881,"MEAN_ANOMALY":119.0483,"EPHEMERIS_TYPE":0,"CLASSIFICATION_TYPE":"U","NORAD_CAT_ID":68319,"ELEMENT_SET_NO":999,"REV_AT_EPOCH":33,"BSTAR":0.00024002995,"MEAN_MOTION_DOT":0.00012619,"MEAN_MOTION_DDOT":0}]
